BEIDOU 3 (C01)          
1 36287U 10001A   21239.93285226 -.00000287  00000-0  00000-0 0  9990
2 36287   1.9856  49.1982 0005978  90.6569 312.7691  1.00274122 42570
BEIDOU 5 (C06)          
1 36828U 10036A   21239.88336407 -.00000122  00000-0  00000-0 0  9999
2 36828  54.1838 178.9340 0023269 183.5100  38.6556  1.00282735 40634
BEIDOU 6 (C04)          
1 37210U 10057A   21239.86497334 -.00000119  00000-0  00000-0 0  9999
2 37210   0.9605  54.4480 0006383 127.9463 265.3235  1.00271162 39695
BEIDOU 7 (C07)          
1 37256U 10068A   21239.38434192 -.00000184  00000-0  00000-0 0  9993
2 37256  50.7385 293.1580 0019909 184.1453 103.0740  1.00308383 39198
BEIDOU 8 (C08)          
1 37384U 11013A   21239.89775618 -.00000175  00000-0  00000-0 0  9993
2 37384  59.8727  57.1818 0054957 206.4312 154.8119  1.00286000 38088
BEIDOU 9 (C09)          
1 37763U 11038A   21239.94262932 -.00000062  00000-0  00000-0 0  9992
2 37763  54.4737 181.3923 0086437 226.8888 359.1542  1.00294390 37057
BEIDOU 10 (C10)         
1 37948U 11073A   21239.60674406 -.00000143  00000-0  00000-0 0  9992
2 37948  50.8399 292.7801 0078439 216.4598 141.5644  1.00277316 35800
BEIDOU 11 (C05)         
1 38091U 12008A   21239.91654245  .00000050  00000-0  00000-0 0  9990
2 38091   1.7018  69.4452 0005585 343.3611 312.1744  1.00273023 34887
BEIDOU 12 (C11)         
1 38250U 12018A   21239.80582669 -.00000107  00000-0  00000-0 0  9990
2 38250  56.7509   3.2587 0021562 243.8492   8.8929  1.86234311 63616
BEIDOU 13 (C12)         
1 38251U 12018B   21239.73762875 -.00000108  00000-0  00000-0 0  9993
2 38251  56.6724   2.6054 0012446 243.1419   8.2381  1.86234095 63615
BEIDOU 15 (C14)         
1 38775U 12050B   21238.99961448 -.00000026  00000-0  00000-0 0  9993
2 38775  55.2390 121.6064 0014038 325.2657 348.6836  1.86231707 60977
BEIDOU 16 (C02)         
1 38953U 12059A   21239.92151389 -.00000183  00000-0  00000-0 0  9993
2 38953   1.2656  83.9559 0010276 297.9073  10.3273  1.00270578 32452
BEIDOU 17 (C31)         
1 40549U 15019A   21239.73452192 -.00000153  00000-0  00000-0 0  9998
2 40549  52.3786 316.1691 0040718 191.2053 184.6709  1.00250892 23493
BEIDOU 18 (C57)         
1 40748U 15037A   21239.87241029 -.00000109  00000-0  00000-0 0  9990
2 40748  55.9316   1.6442 0002633  54.4268 197.1262  1.86233428 41442
BEIDOU 19 (C58)         
1 40749U 15037B   21239.30222013 -.00000110  00000-0  00000-0 0  9993
2 40749  55.9356   1.6531 0002179 322.1813  42.8760  1.86232095 41439
BEIDOU 20 (C18)         
1 40938U 15053A   21239.38268684 -.00000112  00000-0  00000+0 0  9994
2 40938  51.9544 279.2489 0048603 195.0982  95.3945  1.00267606 21758
BEIDOU IGSO-6 (C13)     
1 41434U 16021A   21239.21783630 -.00000127  00000-0  00000-0 0  9994
2 41434  57.6632  55.8949 0039214 210.3404 240.8846  1.00255522 19880
BEIDOU-2 G7 (C03)       
1 41586U 16037A   21239.83016094 -.00000361  00000-0  00000-0 0  9990
2 41586   1.8490  68.5886 0007965  17.8140 299.2710  1.00271643 19191
BEIDOU-3 M1 (C19)       
1 43001U 17069A   21239.63756369 -.00000030  00000-0  00000-0 0  9997
2 43001  55.3935 121.5452 0009466 295.6673 241.9626  1.86231879 25926
BEIDOU-3 M2 (C20)       
1 43002U 17069B   21239.77198970 -.00000031  00000-0  00000-0 0  9992
2 43002  55.3933 121.5771 0008339 319.6531 351.4702  1.86231420 25910
BEIDOU-3 M3 (C27)       
1 43107U 18003A   21239.58597014 -.00000110  00000-0  00000-0 0  9996
2 43107  55.3760   2.7026 0004780  65.3299 286.9807  1.86232476 24671
BEIDOU-3 M4 (C28)       
1 43108U 18003B   21239.63224096 -.00000110  00000-0  00000-0 0  9990
2 43108  55.3709   2.6899 0002916 221.1142 207.3968  1.86232492 24684
BEIDOU-3 M5 (C21)       
1 43207U 18018A   21238.90342155 -.00000025  00000-0  00000-0 0  9997
2 43207  55.3515 121.6936 0006160 344.8348  15.2244  1.86231780 24052
BEIDOU-3 M6 (C22)       
1 43208U 18018B   21238.97014116 -.00000025  00000-0  00000-0 0  9998
2 43208  55.3512 121.6960 0007585 309.2894  50.7226  1.86231568 24058
BEIDOU-3 M7 (C29)       
1 43245U 18029A   21239.72008451 -.00000111  00000-0  00000-0 0  9996
2 43245  55.3038   0.4852 0001107 131.4912 220.9774  1.86232638 23211
BEIDOU-3 M8 (C30)       
1 43246U 18029B   21239.85878889 -.00000111  00000-0  10000-3 0  9995
2 43246  55.3008   0.5106 0003001   0.4462 131.2683  1.86233079 23215
BEIDOU IGSO-7 (C16)     
1 43539U 18057A   21239.54614385 -.00000124  00000-0  00000-0 0  9996
2 43539  55.0631 178.3161 0038761 223.1087 240.6817  1.00247237 11568
BEIDOU-3 M9 (C23)       
1 43581U 18062A   21239.61591225  .00000042  00000-0  00000-0 0  9992
2 43581  54.3774 242.1546 0006262 267.0419 272.0783  1.86231853 20954
BEIDOU-3 M10 (C24)      
1 43582U 18062B   21239.48256515  .00000040  00000-0  00000-0 0  9996
2 43582  54.3757 242.1490 0005000 326.0121 215.1093  1.86232172 20956
BEIDOU-3 M11 (C25)      
1 43602U 18067A   21239.60304118  .00000043  00000-0  00000-0 0  9994
2 43602  54.4534 240.7335 0006595 349.5528 314.4386  1.86231605 20448
BEIDOU-3 M12 (C26)      
1 43603U 18067B   21239.61621262  .00000044  00000-0  00000-0 0  9999
2 43603  54.4504 240.7000 0004236 330.9767 252.2912  1.86231516 20461
BEIDOU-3 M13 (C32)      
1 43622U 18072A   21239.67651544 -.00000030  00000-0  00000-0 0  9994
2 43622  55.3172 121.2327 0005974 293.5654   0.1639  1.86232004 19970
BEIDOU-3 M14 (C33)      
1 43623U 18072B   21239.53634846 -.00000029  00000-0  00000-0 0  9994
2 43623  55.3196 121.2292 0004787 324.4380 325.5497  1.86231988 19975
BEIDOU-3 M15 (C34)      
1 43647U 18078A   21239.20611480 -.00000112  00000-0  10000-3 0  9996
2 43647  55.1983   0.6864 0005268   2.6068 321.1897  1.86233011 19471
BEIDOU-3 M16 (C35)      
1 43648U 18078B   21239.73598146 -.00000111  00000-0  00000-0 0  9993
2 43648  55.1940   0.6754 0003693  25.2374 202.1461  1.86232295 19506
BEIDOU-3 G1 (C59)       
1 43683U 18085A   21239.75188615 -.00000286  00000-0  00000-0 0  9991
2 43683   0.9588 217.9256 0004424  19.0131 149.9571  1.00271213 10461
BEIDOU-3 M17 (C36)      
1 43706U 18093A   21239.55003956  .00000042  00000-0  00000-0 0  9997
2 43706  54.4576 242.0202 0011757 269.6651  90.2062  1.86232065 18866
BEIDOU-3 M18 (C37)      
1 43707U 18093B   21239.63254192  .00000043  00000-0  00000-0 0  9998
2 43707  54.4577 242.0089 0010016 288.7972 217.3070  1.86232112 18859
BEIDOU-3 IGSO-1 (C38)   
1 44204U 19023A   21239.40741829 -.00000198  00000-0  00000-0 0  9990
2 44204  56.1227  56.1440 0020115 187.7976 352.6540  1.00274150  8769
BEIDOU-2 G8             
1 44231U 19027A   21239.93372443 -.00000255  00000-0  00000-0 0  9998
2 44231   0.2694  22.6590 0006467 170.0760 264.2858  1.00268815  8481
BEIDOU-3 IGSO-2 (C39)   
1 44337U 19035A   21239.71335626 -.00000136  00000-0  00000-0 0  9990
2 44337  55.0974 174.3559 0020127 184.6864 351.8608  1.00290930  8100
BEIDOU-3 M23 (C45)      
1 44542U 19061A   21239.54834640  .00000042  00000-0  10000-3 0  9997
2 44542  54.6828 242.1042 0009095 316.1878  86.2601  1.86231459 13114
BEIDOU-3 M24 (C46)      
1 44543U 19061B   21239.94735829  .00000047  00000-0  10000-3 0  9996
2 44543  54.6805 242.0608 0006806 299.9823 280.9343  1.86231715 13113
BEIDOU-3 IGSO-3         
1 44709U 19073A   21239.58377924 -.00000174  00000-0  00000-0 0  9999
2 44709  57.7316 299.4321 0020519 183.7516 180.7298  1.00295524  6866
BEIDOU-3 M21            
1 44793U 19078A   21239.66825686 -.00000112  00000-0  10000-3 0  9995
2 44793  55.0467   0.7281 0005409  13.3810 214.6019  1.86232261 11970
BEIDOU-3 M22            
1 44794U 19078B   21239.80437462 -.00000111  00000-0  00000-0 0  9998
2 44794  55.0205   0.7216 0003454  14.4263 215.9375  1.86232791 11978
BEIDOU-3 M19            
1 44864U 19090A   21239.61357223 -.00000030  00000-0  00000-0 0  9995
2 44864  55.2527 121.4615 0015671 269.1592  27.8833  1.86232021 11556
BEIDOU-3 M20            
1 44865U 19090B   21239.46883545 -.00000029  00000-0  00000-0 0  9998
2 44865  55.2554 121.4976 0014321 285.1141   4.7989  1.86231981 11523
BEIDOU-3 G2             
1 45344U 20017A   21239.92081615 -.00000146  00000-0  00000-0 0  9991
2 45344   2.3417 338.8256 0004133 153.9319 255.1270  1.00271120  5681
BEIDOU-3 G3             
1 45807U 20040A   21239.92692142 -.00000360  00000-0  00000-0 0  9992
2 45807   2.1201 298.8938 0008194 335.9402 145.6787  1.00277487  4498
